[{"OBJECT_NAME":"COSMO-SKYMED 4","OBJECT_ID":"2010-060A","EPOCH":"2026-03-10T00:01:02.517312","MEAN_MOTION":14.82164751,"ECCENTRICITY":0.00013936,"INCLINATION":97.8865,"RA_OF_ASC_NODE":254.0323,"ARG_OF_PERICENTER":85.3865,"MEAN_ANOMALY":274.7507,"EPHEMERIS_TYPE":0,"CLASSIFICATION_TYPE":"U","NORAD_CAT_ID":37216,"ELEMENT_SET_NO":999,"REV_AT_EPOCH":82987,"BSTAR":0.00016215676,"MEAN_MOTION_DOT":1.239e-5,"MEAN_MOTION_DDOT":0},{"OBJECT_NAME":"CZ-4C R\/B","OBJECT_ID":"2016-049B","EPOCH":"2026-03-09T17:16:12.201024","MEAN_MOTION":14.71492557,"ECCENTRICITY":0.00987138,"INCLINATION":97.9709,"RA_OF_ASC_NODE":136.8918,"ARG_OF_PERICENTER":147.0994,"MEAN_ANOMALY":213.641,"EPHEMERIS_TYPE":0,"CLASSIFICATION_TYPE":"U","NORAD_CAT_ID":41728,"ELEMENT_SET_NO":999,"REV_AT_EPOCH":51350,"BSTAR":0.00015792984,"MEAN_MOTION_DOT":1.003e-5,"MEAN_MOTION_DDOT":0}]
